NORAD_CAT_ID,OBJECT_NAME,OBJECT_TYPE,EPOCH,MEAN_MOTION,ECCENTRICITY,INCLINATION,RA_OF_ASC_NODE,ARG_OF_PERICENTER,MEAN_ANOMALY,BSTAR,MEAN_MOTION_DOT,MEAN_MOTION_DDOT,TLE_LINE0,TLE_LINE1,TLE_LINE2,SEMIMAJOR_AXIS,PERIOD,APOGEE,PERIGEE,DECAYED
51151.0,STARLINK-3361,PAYLOAD,2023-07-03 17:01:34,15.08830294,0.0001104,53.2168,28.3932,76.7379,283.3737,0.00014928,2.088e-05,0.0,0 STARLINK-3361,1 51151U 22005AZ  23184.70942711  .00002088  00000-0  14928-3 0  9996,2 51151  53.2168  28.3932 0001104  76.7379 283.3737 15.08830294 81767,6917.91,95.438,540.539,539.011,0.0
51151.0,STARLINK-3361,PAYLOAD,2023-07-04 00:58:29,15.08843255,0.0001186,53.2176,26.9054,89.5753,270.5375,9.2988e-05,1.192e-05,0.0,0 STARLINK-3361,1 51151U 22005AZ  23185.04061957  .00001192  00000-0  92988-4 0  9996,2 51151  53.2176  26.9054 0001186  89.5753 270.5375 15.08843255 81816,6917.87,95.437,540.556,538.915,0.0
51151.0,STARLINK-3361,PAYLOAD,2023-07-05 05:35:26,15.08842387,0.0001103,53.2168,21.5517,84.8355,275.2763,-2.267e-05,-6.49e-06,0.0,0 STARLINK-3361,1 51151U 22005AZ  23186.23294166 -.00000649  00000-0 -22670-4 0  9997,2 51151  53.2168  21.5517 0001103  84.8355 275.2763 15.08842387 81994,6917.873,95.437,540.501,538.975,0.0
51151.0,STARLINK-3361,PAYLOAD,2023-07-05 15:07:45,15.0883371,0.0001111,53.2167,19.7676,97.1165,262.9953,4.2118e-05,3.82e-06,0.0,0 STARLINK-3361,1 51151U 22005AZ  23186.63038710  .00000382  00000-0  42118-4 0  9993,2 51151  53.2167  19.7676 0001111  97.1165 262.9953 15.08833710 82055,6917.9,95.438,540.533,538.996,0.0
51151.0,STARLINK-3361,PAYLOAD,2023-07-05 23:04:40,15.08840401,0.0001179,53.2175,18.2819,102.0259,258.0865,8.6962e-05,1.096e-05,0.0,0 STARLINK-3361,1 51151U 22005AZ  23186.96158252  .00001096  00000-0  86962-4 0  9991,2 51151  53.2175  18.2819 0001179 102.0259 258.0865 15.08840401 82100,6917.879,95.438,540.56,538.929,0.0
51151.0,STARLINK-3361,PAYLOAD,2023-07-07 05:17:00,15.08843339,0.000108,53.2176,12.6317,91.5103,268.6013,5.0124e-05,5.1e-06,0.0,0 STARLINK-3361,1 51151U 22005AZ  23188.22014385  .00000510  00000-0  50124-4 0  9991,2 51151  53.2176  12.6317 0001080  91.5103 268.6013 15.08843339 82298,6917.87,95.437,540.482,538.988,0.0
51151.0,STARLINK-3361,PAYLOAD,2023-07-07 18:00:05,15.08837483,0.000114,53.2175,10.253,104.2351,255.8768,8.2854e-05,1.031e-05,0.0,0 STARLINK-3361,1 51151U 22005AZ  23188.75006815  .00001031  00000-0  82854-4 0  9992,2 51151  53.2175  10.2530 0001140 104.2351 255.8768 15.08837483 82379,6917.888,95.438,540.542,538.964,0.0
51151.0,STARLINK-3361,PAYLOAD,2023-07-08 19:26:15,15.08861263,0.0001403,53.2179,5.4956,108.2297,251.8847,-0.00015718,-2.79e-05,0.0,0 STARLINK-3361,1 51151U 22005AZ  23189.80989955 -.00002790  00000-0 -15718-3 0  9993,2 51151  53.2179   5.4956 0001403 108.2297 251.8847 15.08861263 82531,6917.815,95.436,540.651,538.71,0.0
51151.0,STARLINK-3361,PAYLOAD,2023-07-09 04:58:34,15.08844489,0.0001039,53.2177,3.7111,86.2858,273.8253,2.7507e-05,1.5e-06,0.0,0 STARLINK-3361,1 51151U 22005AZ  23190.20734552  .00000150  00000-0  27507-4 0  9996,2 51151  53.2177   3.7111 0001039  86.2858 273.8253 15.08844489 82598,6917.867,95.437,540.45,539.013,0.0
51151.0,STARLINK-3361,PAYLOAD,2023-07-09 11:20:07,15.08834945,0.000117,53.218,2.5228,84.9656,275.147,6.5114e-05,7.48e-06,0.0,0 STARLINK-3361,1 51151U 22005AZ  23190.47231247  .00000748  00000-0  65114-4 0  9997,2 51151  53.2180   2.5228 0001170  84.9656 275.1470 15.08834945 82632,6917.896,95.438,540.57,538.951,0.0
51151.0,STARLINK-3361,PAYLOAD,2023-07-10 17:32:26,15.08847443,0.0001133,53.2177,356.872,86.5046,273.6076,0.00013486,1.86e-05,0.0,0 STARLINK-3361,1 51151U 22005AZ  23191.73086299  .00001860  00000-0  13486-3 0  9992,2 51151  53.2177 356.8720 0001133  86.5046 273.6076 15.08847443 82823,6917.858,95.437,540.506,538.939,0.0
51151.0,STARLINK-3361,PAYLOAD,2023-07-11 17:23:14,15.08837809,0.0001051,53.2183,352.4119,92.5646,267.5466,0.00014974,2.096e-05,0.0,0 STARLINK-3361,1 51151U 22005AZ  23192.72446899  .00002096  00000-0  14974-3 0  9993,2 51151  53.2183 352.4119 0001051  92.5646 267.5466 15.08837809 82972,6917.887,95.438,540.479,539.025,0.0
51151.0,STARLINK-3361,PAYLOAD,2023-07-13 17:04:48,15.0884428,0.0001063,53.2175,343.4899,89.7353,270.3761,0.0001737,2.478e-05,0.0,0 STARLINK-3361,1 51151U 22005AZ  23194.71166877  .00002478  00000-0  17370-3 0  9996,2 51151  53.2175 343.4899 0001063  89.7353 270.3761 15.08844280 83279,6917.867,95.437,540.468,538.997,0.0
51151.0,STARLINK-3361,PAYLOAD,2023-07-14 08:58:39,15.08836105,0.0001093,53.2167,340.5167,92.2724,267.8394,0.00013075,1.793e-05,0.0,0 STARLINK-3361,1 51151U 22005AZ  23195.37407397  .00001793  00000-0  13075-3 0  9991,2 51151  53.2167 340.5167 0001093  92.2724 267.8394 15.08836105 83371,6917.892,95.438,540.513,539.001,0.0
51151.0,STARLINK-3361,PAYLOAD,2023-07-15 18:21:45,15.08850443,0.0001204,53.2176,334.2734,95.1985,264.9145,0.00032147,4.833e-05,0.0,0 STARLINK-3361,1 51151U 22005AZ  23196.76511143  .00004833  00000-0  32147-3 0  9999,2 51151  53.2176 334.2734 0001204  95.1985 264.9145 15.08850443 83582,6917.848,95.437,540.546,538.881,0.0
51151.0,STARLINK-3361,PAYLOAD,2023-07-16 02:18:41,15.08839301,0.0001163,53.2171,332.7845,89.9506,270.1619,0.00012763,1.744e-05,0.0,0 STARLINK-3361,1 51151U 22005AZ  23197.09631514  .00001744  00000-0  12763-3 0  9991,2 51151  53.2171 332.7845 0001163  89.9506 270.1619 15.08839301 83638,6917.883,95.438,540.552,538.943,0.0
51151.0,STARLINK-3361,PAYLOAD,2023-07-17 18:03:19,15.08854368,0.0001102,53.2165,325.3503,84.8801,275.2317,0.00049739,7.64e-05,0.0,0 STARLINK-3361,1 51151U 22005AZ  23198.75231381  .00007640  00000-0  49739-3 0  9997,2 51151  53.2165 325.3503 0001102  84.8801 275.2317 15.08854368 83883,6917.836,95.437,540.464,538.939,0.0
51151.0,STARLINK-3361,PAYLOAD,2023-07-18 17:54:06,15.08855528,0.0001183,53.2168,320.8883,90.0156,270.0971,0.00032346,4.866e-05,0.0,0 STARLINK-3361,1 51151U 22005AZ  23199.74590930  .00004866  00000-0  32346-3 0  9998,2 51151  53.2168 320.8883 0001183  90.0156 270.0971 15.08855528 84034,6917.833,95.437,540.516,538.88,0.0
51151.0,STARLINK-3361,PAYLOAD,2023-07-18 19:29:29,15.08862515,0.0001068,53.2169,320.5923,96.3177,263.7937,0.00048804,7.493e-05,0.0,0 STARLINK-3361,1 51151U 22005AZ  23199.81214618  .00007493  00000-0  48804-3 0  9997,2 51151  53.2169 320.5923 0001068  96.3177 263.7937 15.08862515 84047,6917.812,95.436,540.415,538.938,0.0
51151.0,STARLINK-3361,PAYLOAD,2023-07-19 17:44:54,15.08826106,0.0001243,53.2174,316.427,104.7484,255.3646,-0.00017956,-3.143e-05,0.0,0 STARLINK-3361,1 51151U 22005AZ  23200.73952396 -.00003143  00000-0 -17956-3 0  9997,2 51151  53.2174 316.4270 0001243 104.7484 255.3646 15.08826106 84187,6917.923,95.438,540.648,538.928,0.0
51151.0,STARLINK-3361,PAYLOAD,2023-07-20 17:35:41,15.08854654,0.0001038,53.217,311.9711,94.2547,265.8564,0.00087207,0.00013624,0.0,0 STARLINK-3361,1 51151U 22005AZ  23201.73312124  .00013624  00000-0  87207-3 0  9996,2 51151  53.2170 311.9711 0001038  94.2547 265.8564 15.08854654 84339,6917.836,95.437,540.419,538.983,0.0
51151.0,STARLINK-3361,PAYLOAD,2023-07-21 07:54:09,15.08851361,0.0001082,53.2171,309.2949,91.4685,268.6431,0.00045331,6.936e-05,0.0,0 STARLINK-3361,1 51151U 22005AZ  23202.32928131  .00006936  00000-0  45331-3 0  9993,2 51151  53.2171 309.2949 0001082  91.4685 268.6431 15.08851361 84420,6917.846,95.437,540.459,538.962,0.0
51151.0,STARLINK-3361,PAYLOAD,2023-07-24 05:51:08,15.08842951,0.0001338,53.2163,296.2119,87.7591,272.3554,0.00016316,2.31e-05,0.0,0 STARLINK-3361,1 51151U 22005AZ  23205.24384277  .00002310  00000-0  16316-3 0  9997,2 51151  53.2163 296.2119 0001338  87.7591 272.3554 15.08842951 83751,6917.871,95.437,540.662,538.811,0.0
51151.0,STARLINK-3361,PAYLOAD,2023-07-25 12:03:27,15.08840962,0.000106,53.2161,290.5592,109.7792,250.3314,9.053e-05,1.153e-05,0.0,0 STARLINK-3361,1 51151U 22005AZ  23206.50240407  .00001153  00000-0  90530-4 0  9998,2 51151  53.2161 290.5592 0001060 109.7792 250.3314 15.08840962 83942,6917.877,95.437,540.476,539.009,0.0
51151.0,STARLINK-3361,PAYLOAD,2023-07-26 08:43:28,15.08838347,0.0001181,53.2167,286.6916,114.9712,245.1403,6.0984e-05,6.83e-06,0.0,0 STARLINK-3361,1 51151U 22005AZ  23207.36352637  .00000683  00000-0  60984-4 0  9999,2 51151  53.2167 286.6916 0001181 114.9712 245.1403 15.08838347 84078,6917.885,95.438,540.567,538.933,0.0
51151.0,STARLINK-3361,PAYLOAD,2023-07-26 15:05:00,15.08846412,0.0001662,53.2148,285.5103,67.0258,293.0909,0.00014873,2.08e-05,0.0,0 STARLINK-3361,1 51151U 22005AZ  23207.62848196  .00002080  00000-0  14873-3 0  9996,2 51151  53.2148 285.5103 0001662  67.0258 293.0909 15.08846412 85223,6917.861,95.437,540.876,538.576,0.0
51151.0,STARLINK-3361,PAYLOAD,2023-07-27 00:37:19,15.08840151,9.39e-05,53.2164,283.7181,107.1058,253.0037,6.9527e-05,8.19e-06,0.0,0 STARLINK-3361,1 51151U 22005AZ  23208.02592414  .00000819  00000-0  69527-4 0  9995,2 51151  53.2164 283.7181 0000939 107.1058 253.0037 15.08840151 85285,6917.88,95.438,540.395,539.095,0.0
51151.0,STARLINK-3361,PAYLOAD,2023-07-27 05:23:29,15.08839444,9.22e-05,53.2164,282.8259,107.3405,252.7688,4.8576e-05,4.85e-06,0.0,0 STARLINK-3361,1 51151U 22005AZ  23208.22464434  .00000485  00000-0  48576-4 0  9997,2 51151  53.2164 282.8259 0000922 107.3405 252.7688 15.08839444 84203,6917.882,95.438,540.385,539.109,0.0
51151.0,STARLINK-3361,PAYLOAD,2023-07-28 05:14:16,15.08834222,9.07e-05,53.2162,278.3654,96.8206,263.289,5.1482e-05,5.32e-06,0.0,0 STARLINK-3361,1 51151U 22005AZ  23209.21825012  .00000532  00000-0  51482-4 0  9993,2 51151  53.2162 278.3654 0000907  96.8206 263.2890 15.08834222 85464,6917.898,95.438,540.391,539.136,0.0
51151.0,STARLINK-3361,PAYLOAD,2023-07-28 08:25:03,15.08837216,8.69e-05,53.2158,277.7717,81.8672,278.2419,-4.2971e-05,-9.71e-06,0.0,0 STARLINK-3361,1 51151U 22005AZ  23209.35073165 -.00000971  00000-0 -42971-4 0  9994,2 51151  53.2158 277.7717 0000869  81.8672 278.2419 15.08837216 84378,6917.889,95.438,540.355,539.153,0.0
